ONEWEB-0311             
1 49097U 21075Y   24303.90806801  .00000218  00000+0  52806-3 0  9992
2 49097  87.9071 124.4464 0001204  99.0847 261.0421 13.17649930155237
ONEWEB-0312             
1 49098U 21075Z   24303.92325200 -.00000337  00000+0 -90183-3 0  9998
2 49098  87.9073 124.4755 0001123  79.3199 280.8059 13.17648119155216
ONEWEB-0313             
1 49099U 21075AA  24304.22715353 -.00000099  00000+0 -29475-3 0  9996
2 49099  87.9071 124.4281 0001285  84.7659 275.3618 13.16053943156247
ONEWEB-0314             
1 49100U 21075AB  24303.59082501  .00000067  00000+0  14046-3 0  9991
2 49100  87.9069 124.4969 0001100  83.3442 276.7815 13.17647988155131
ONEWEB-0315             
1 49101U 21075AC  24303.87337134 -.00000298  00000+0 -86330-3 0  9991
2 49101  87.8834 109.2110 0001443 106.5085 253.6202 13.12441560158085
ONEWEB-0316             
1 49102U 21075AD  24304.13598632  .00000048  00000+0  89177-4 0  9998
2 49102  87.9072  93.8819 0001443  98.9544 261.1751 13.18683860159798
ONEWEB-0317             
1 49103U 21075AE  24304.17183412 -.00000147  00000+0 -44442-3 0  9996
2 49103  87.8838 109.1631 0001950  80.4534 279.6815 13.12442165158136
ONEWEB-0318             
1 49104U 21075AF  24303.67757857  .00000078  00000+0  16484-3 0  9997
2 49104  87.9068  93.9633 0001390 101.8115 258.3173 13.18684285158684
